COMMENT,ORIGINATOR,NORAD_CAT_ID,OBJECT_NAME,OBJECT_TYPE,CLASSIFICATION_TYPE,INTLDES,EPOCH,EPOCH_MICROSECONDS,MEAN_MOTION,ECCENTRICITY,INCLINATION,RA_OF_ASC_NODE,ARG_OF_PERICENTER,MEAN_ANOMALY,EPHEMERIS_TYPE,ELEMENT_SET_NO,REV_AT_EPOCH,BSTAR,MEAN_MOTION_DOT,MEAN_MOTION_DDOT,FILE,TLE_LINE0,TLE_LINE1,TLE_LINE2,OBJECT_ID,OBJECT_NUMBER,SEMIMAJOR_AXIS,PERIOD,APOGEE,PERIGEE,DECAYED
"GENERATED VIA SPACETRACK.ORG API","18 SPCS","12345","COSMOS 1174 DEB","DEBRIS","U","80030T","1983-12-07 22:48:51","658559","14.00805552","0.0652195","66.0595","167.0045","241.6578","111.692","0","999","63311","0.00067735","0.00007129","0","34357","0 COSMOS 1174 DEB","1 12345U 80030  T 83341.95059790  .00007129 +00000-0 +67735-3 0  9999","2 12345 066.0595 167.0045 0652195 241.6578 111.6920 14.00805552633116","1980-030T","12345","7269.149","102.798","1365.104","416.923","1"
"GENERATED VIA SPACETRACK.ORG API","18 SPCS","12345","COSMOS 1174 DEB","DEBRIS","U","80030T","1983-12-05 12:33:16","624511","14.0076874","0.0652366","66.0636","173.2689","243.0445","110.2596","0","999","63277","0.00053776","0.00005637","0","34357","0 COSMOS 1174 DEB","1 12345U 80030  T 83339.52310908  .00005637 +00000-0 +53776-3 0  9992","2 12345 066.0636 173.2689 0652366 243.0445 110.2596 14.00768740632776","1980-030T","12345","7269.276","102.801","1365.364","416.918","1"
"GENERATED VIA SPACETRACK.ORG API","18 SPCS","12345","COSMOS 1174 DEB","DEBRIS","U","80030T","1983-12-02 14:17:54","415680","14.00736508","0.0652841","66.0657","180.8246","244.6023","108.6495","0","999","63236","0.00055558","0.0000584","0","34357","0 COSMOS 1174 DEB","1 12345U 80030  T 83336.59576870  .00005840 +00000-0 +55558-3 0  9994","2 12345 066.0657 180.8246 0652841 244.6023 108.6495 14.00736508632360","1980-030T","12345","7269.388","102.803","1365.828","416.677","1"
"GENERATED VIA SPACETRACK.ORG API","18 SPCS","12345","COSMOS 1174 DEB","DEBRIS","U","80030T","1983-12-01 17:44:06","822239","14.00719491","0.0652724","66.0667","183.0329","245.12","108.0727","0","999","63224","0.00045416","0.00004748","0","34357","0 COSMOS 1174 DEB","1 12345U 80030  T 83335.73896785  .00004748 +00000-0 +45416-3 0  9997","2 12345 066.0667 183.0329 0652724 245.1200 108.0727 14.00719491632242","1980-030T","12345","7269.446","102.804","1365.806","416.817","1"
"GENERATED VIA SPACETRACK.ORG API","18 SPCS","12345","COSMOS 1174 DEB","DEBRIS","U","80030T","1983-12-01 00:35:56","251968","14.00708617","0.0652845","66.0666","184.8722","245.5315","107.6001","0","999","63214","0.00039229","0.00004087","0","34357","0 COSMOS 1174 DEB","1 12345U 80030  T 83335.02495662  .00004087 +00000-0 +39229-3 0  9999","2 12345 066.0666 184.8722 0652845 245.5315 107.6001 14.00708617632149","1980-030T","12345","7269.484","102.805","1365.934","416.764","1"
"GENERATED VIA SPACETRACK.ORG API","18 SPCS","12345","COSMOS 1174 DEB","DEBRIS","U","80030T","1983-11-28 14:20:08","73023","14.0068753","0.0652936","66.0651","191.1333","246.9317","106.1653","0","999","63180","0.00032362","0.0000335","0","34357","0 COSMOS 1174 DEB","1 12345U 80030  T 83332.59731566  .00003350 +00000-0 +32362-3 0  9997","2 12345 066.0651 191.1333 0652936 246.9317 106.1653 14.00687530631809","1980-030T","12345","7269.557","102.807","1366.078","416.766","1"
"GENERATED VIA SPACETRACK.ORG API","18 SPCS","12345","COSMOS 1174 DEB","DEBRIS","U","80030T","1983-11-27 00:38:06","766080","14.00675879","0.0653073","66.0645","195.1833","247.7957","105.2616","0","999","63158","0.00032087","0.00003324","0","34357","0 COSMOS 1174 DEB","1 12345U 80030  T 83331.02646720  .00003324 +00000-0 +32087-3 0  9996","2 12345 066.0645 195.1833 0653073 247.7957 105.2616 14.00675879631580","1980-030T","12345","7269.597","102.808","1366.220","416.705","1"
"GENERATED VIA SPACETRACK.ORG API","18 SPCS","12345","COSMOS 1174 DEB","DEBRIS","U","80030T","1983-11-25 16:04:32","20320","14.00661646","0.0653079","66.0619","198.6835","248.5041","104.5152","0","999","63139","0.00026611","0.00002736","0","34357","0 COSMOS 1174 DEB","1 12345U 80030  T 83329.66981505  .00002736 +00000-0 +26611-3 0  9998","2 12345 066.0619 198.6835 0653079 248.5041 104.5152 14.00661646631393","1980-030T","12345","7269.647","102.809","1366.277","416.746","1"
"GENERATED VIA SPACETRACK.ORG API","18 SPCS","12345","COSMOS 1174 DEB","DEBRIS","U","80030T","1983-11-24 00:39:39","278880","14.00653858","0.0653259","66.063","202.9181","249.4457","103.5414","0","999","63116","0.000336","0.00003487","0","34357","0 COSMOS 1174 DEB","1 12345U 80030  T 83328.02753795  .00003487 +00000-0 +33600-3 0  9995","2 12345 066.0630 202.9181 0653259 249.4457 103.5414 14.00653858631161","1980-030T","12345","7269.673","102.809","1366.436","416.641","1"
"GENERATED VIA SPACETRACK.ORG API","18 SPCS","12345","COSMOS 1174 DEB","DEBRIS","U","80030T","1983-11-23 00:40:09","164640","14.00648964","0.065351","66.0648","205.4967","250.0225","102.937","0","999","63102","0.00038445","0.00004013","0","34357","0 COSMOS 1174 DEB","1 12345U 80030  T 83327.02788385  .00004013 +00000-0 +38445-3 0  9995","2 12345 066.0648 205.4967 0653510 250.0225 102.9370 14.00648964631022","1980-030T","12345","7269.690","102.809","1366.637","416.474","1"
"GENERATED VIA SPACETRACK.ORG API","18 SPCS","12345","COSMOS 1174 DEB","DEBRIS","U","80030T","1983-11-22 00:40:38","595072","14.00642965","0.065367","66.0655","208.0732","250.5777","102.3487","0","999","63088","0.00042688","0.00004472","0","34357","0 COSMOS 1174 DEB","1 12345U 80030  T 83326.02822448  .00004472 +00000-0 +42688-3 0  9996","2 12345 066.0655 208.0732 0653670 250.5777 102.3487 14.00642965630884","1980-030T","12345","7269.711","102.810","1366.775","416.377","1"
"GENERATED VIA SPACETRACK.ORG API","18 SPCS","12345","COSMOS 1174 DEB","DEBRIS","U","80030T","1983-11-20 02:24:25","773120","14.00629528","0.065347","66.0661","213.0435","251.6619","101.1992","0","999","63061","0.00055248","0.0000581","0","34357","0 COSMOS 1174 DEB","1 12345U 80030  T 83324.10029830  .00005810 +00000-0 +55248-3 0  9990","2 12345 066.0661 213.0435 0653470 251.6619 101.1992 14.00629528630611","1980-030T","12345","7269.758","102.811","1366.680","416.566","1"
"GENERATED VIA SPACETRACK.ORG API","18 SPCS","12345","COSMOS 1174 DEB","DEBRIS","U","80030T","1983-11-18 02:25:21","851040","14.00608324","0.0653759","66.0651","218.1995","252.7388","100.0807","0","999","63033","0.00062322","0.00006576","0","34357","0 COSMOS 1174 DEB","1 12345U 80030  T 83322.10094735  .00006576 +00000-0 +62322-3 0  9995","2 12345 066.0651 218.1995 0653759 252.7388 100.0807 14.00608324630335","1980-030T","12345","7269.831","102.812","1366.968","416.424","1"
"GENERATED VIA SPACETRACK.ORG API","18 SPCS","12345","COSMOS 1174 DEB","DEBRIS","U","80030T","1983-11-17 04:08:38","347583","14.00593235","0.0653798","66.065","220.5918","253.2443","99.5524","0","999","63020","0.00057536","0.00006061","0","34357","0 COSMOS 1174 DEB","1 12345U 80030  T 83321.17266606  .00006061 +00000-0 +57536-3 0  9999","2 12345 066.0650 220.5918 0653798 253.2443 099.5524 14.00593235630205","1980-030T","12345","7269.883","102.814","1367.052","416.445","1"
"GENERATED VIA SPACETRACK.ORG API","18 SPCS","12345","COSMOS 1174 DEB","DEBRIS","U","80030T","1983-11-14 04:09:54","523871","14.00559234","0.065392","66.0683","228.3288","254.981","97.7533","0","999","62978","0.00078593","0.00008318","0","34357","0 COSMOS 1174 DEB","1 12345U 80030  T 83318.17354773  .00008318 +00000-0 +78593-3 0  9991","2 12345 066.0683 228.3288 0653920 254.9810 097.7533 14.00559234629782","1980-030T","12345","7270.001","102.816","1367.266","416.466","1"
"GENERATED VIA SPACETRACK.ORG API","18 SPCS","12345","COSMOS 1174 DEB","DEBRIS","U","80030T","1983-11-10 19:36:56","575008","14.00504179","0.065461","66.0699","236.9831","256.8077","95.9936","0","999","62931","0.00077502","0.00008222","0","34357","0 COSMOS 1174 DEB","1 12345U 80030  T 83314.81732147  .00008222 +00000-0 +77502-3 0  9996","2 12345 066.0699 236.9831 0654610 256.8077 095.9936 14.00504179629315","1980-030T","12345","7270.191","102.820","1367.970","416.142","1"
"GENERATED VIA SPACETRACK.ORG API","18 SPCS","12345","COSMOS 1174 DEB","DEBRIS","U","80030T","1983-11-10 19:36:55","347264","14.00504181","0.065461","66.0699","236.9831","256.8077","95.922","0","999","62931","0.00077506","0.00008224","0","34357","0 COSMOS 1174 DEB","1 12345U 80030  T 83314.81730726  .00008224 +00000-0 +77506-3 0  9993","2 12345 066.0699 236.9831 0654610 256.8077 095.9220 14.00504181629314","1980-030T","12345","7270.191","102.820","1367.970","416.142","1"
"GENERATED VIA SPACETRACK.ORG API","18 SPCS","12345","COSMOS 1174 DEB","DEBRIS","U","80030T","1983-11-07 05:55:12","244799","14.00444139","0.0654565","66.0637","246.1876","258.8563","93.7894","0","999","62881","0.00064962","0.00006857","0","34357","0 COSMOS 1174 DEB","1 12345U 80030  T 83311.24666950  .00006857 +00000-0 +64962-3 0  9996","2 12345 066.0637 246.1876 0654565 258.8563 093.7894 14.00444139628812","1980-030T","12345","7270.399","102.825","1368.159","416.369","1"
"GENERATED VIA SPACETRACK.ORG API","18 SPCS","12345","COSMOS 1174 DEB","DEBRIS","U","80030T","1983-11-06 05:55:29","52191","14.00432022","0.0654386","66.0636","248.7654","259.4064","93.2093","0","999","62867","0.00070236","0.00007412","0","34357","0 COSMOS 1174 DEB","1 12345U 80030  T 83310.24686403  .00007412 +00000-0 +70236-3 0  9999","2 12345 066.0636 248.7654 0654386 259.4064 093.2093 14.00432022628675","1980-030T","12345","7270.441","102.825","1368.074","416.539","1"
"GENERATED VIA SPACETRACK.ORG API","18 SPCS","12345","COSMOS 1174 DEB","DEBRIS","U","80030T","1983-11-04 05:56:01","495392","14.00406653","0.0654561","66.0648","253.9197","260.5013","92.1213","0","999","62839","0.00077175","0.00008156","0","34357","0 COSMOS 1174 DEB","1 12345U 80030  T 83308.24723953  .00008156 +00000-0 +77175-3 0  9993","2 12345 066.0648 253.9197 0654561 260.5013 092.1213 14.00406653628392","1980-030T","12345","7270.529","102.827","1368.294","416.493","1"
